QIANFAN-9               
1 60387U 24140J   25226.92172041  .00000124  00000+0  17289-3 0  9994
2 60387  88.9841 311.7237 0016855 176.7724 183.3539 13.50959806 51157
QIANFAN-10              
1 60388U 24140K   25226.92583727  .00000120  00000+0  16743-3 0  9992
2 60388  88.9849 311.0597 0016068 154.9419 205.2515 13.50961892 51283
QIANFAN-11              
1 60389U 24140L   25226.88875653  .00000130  00000+0  18212-3 0  9994
2 60389  88.9777 311.7394 0014893 175.6588 184.4695 13.50962156 50939
QIANFAN-12              
1 60390U 24140M   25226.90927233  .00000117  00000+0  16213-3 0  9995
2 60390  88.9820 311.7283 0013433 182.7032 177.4049 13.50962031 51061
QIANFAN-13              
1 60391U 24140N   25226.88048855  .00000120  00000+0  16716-3 0  9999
2 60391  88.9832 311.8163 0013163 185.2484 174.8531 13.50961916 51082
QIANFAN-14              
1 60392U 24140P   25226.90512252  .00000133  00000+0  18716-3 0  9996
2 60392  88.9811 311.7370 0016813 187.1661 172.9253 13.50963081 51098
QIANFAN-15              
1 60393U 24140Q   25226.91351723  .00000118  00000+0  16379-3 0  9998
2 60393  88.9834 311.6644 0013139 171.6162 188.5211 13.50959644 51085
QIANFAN-16              
1 60394U 24140R   25226.90111864  .00000142  00000+0  20190-3 0  9991
2 60394  88.9838 311.7820 0014607 190.0193 170.0669 13.50962194 50993
